ONEWEB-0275             
1 48993U 21060AC  26154.62597676 -.00000239  00000+0 -65798-3 0  9991
2 48993  87.9107 231.4679 0001976  95.9619 264.1738 13.16592181237775
ONEWEB-0276             
1 48994U 21060AD  26154.58322166  .00000093  00000+0  20870-3 0  9995
2 48994  87.9103 231.4762 0002037  94.0246 266.1118 13.16593170237784
ONEWEB-0277             
1 48995U 21060AE  26154.59589038  .00000162  00000+0  38997-3 0  9996
2 48995  87.9103 231.4830 0001800  97.2455 262.8881 13.16593127237776
ONEWEB-0278             
1 48996U 21060AF  26154.58638576  .00000117  00000+0  27214-3 0  9998
2 48996  87.9107 231.4752 0002285 108.2390 251.8990 13.16595848237909
ONEWEB-0279             
1 48997U 21060AG  26154.59430981  .00000065  00000+0  13713-3 0  9991
2 48997  87.9107 231.4708 0001829  95.1442 264.9898 13.16593610237835
ONEWEB-0280             
1 48998U 21060AH  26154.60933346  .00000012  00000+0 -28602-5 0  9995
2 48998  87.9105 231.4718 0001927 109.8641 250.2698 13.16592565237775
ONEWEB-0281             
1 48999U 21060AJ  26154.61489477  .00000004  00000+0 -24012-4 0  9999
2 48999  87.9107 231.4659 0002095 100.1319 260.0049 13.16594148237841
ONEWEB-0282             
1 49000U 21060AK  26154.64496551 -.00000060  00000+0 -18983-3 0  9999
2 49000  87.9101 231.4683 0001896 103.0117 257.1226 13.16595527237826
ONEWEB-0283             
1 49001U 21060AL  26154.63388390 -.00000026  00000+0 -10039-3 0  9996
2 49001  87.9103 231.4705 0001916  96.3875 263.7474 13.16593070237832
ONEWEB-0284             
1 49002U 21060AM  26154.62755741 -.00000028  00000+0 -10734-3 0  9998
2 49002  87.9104 231.4650 0002092 108.9652 251.1706 13.16593477237810
ONEWEB-0285             
1 49075U 21075A   26155.09994843 -.00000076  00000+0 -24714-3 0  9990
2 49075  87.8949 353.2649 0001728  88.4537 271.6790 13.12441735233491
ONEWEB-0286             
1 49076U 21075B   26155.08202484  .00000393  00000+0  10582-2 0  9990
2 49076  87.8940 353.2865 0001984  87.1205 273.0151 13.12442294232841
ONEWEB-0287             
1 49077U 21075C   26155.10562763  .00000055  00000+0  10948-3 0  9995
2 49077  87.9144   8.4685 0002268  91.2477 268.8915 13.17647992231904
ONEWEB-0288             
1 49078U 21075D   26155.05844050  .00000075  00000+0  17332-3 0  9998
2 49078  87.8949 353.2667 0001962  99.4174 260.7176 13.12443949233466
ONEWEB-0289             
1 49079U 21075E   26155.06836722  .00000194  00000+0  46592-3 0  9999
2 49079  87.9151   8.4921 0001630  97.2968 262.8349 13.17650188232479
ONEWEB-0290             
1 49080U 21075F   26155.04150657  .00000079  00000+0  17062-3 0  9997
2 49080  87.9149   8.4689 0001483 100.9702 259.1597 13.17650193231887
ONEWEB-0291             
1 49081U 21075G   26155.10225341  .00000023  00000+0  25729-4 0  9997
2 49081  87.9146   8.4652 0002049  98.7172 261.4191 13.17647710231886
ONEWEB-0293             
1 49082U 21075H   26155.05161990  .00000032  00000+0  49559-4 0  9998
2 49082  87.9145   8.4785 0001712  89.2473 270.8855 13.17651227231900
ONEWEB-0294             
1 49083U 21075J   26155.06522560  .00000188  00000+0  48701-3 0  9993
2 49083  87.8952 353.2686 0001654 100.5782 259.5533 13.12444101232850
ONEWEB-0295             
1 49084U 21075K   26155.12671401 -.00000240  00000+0 -65110-3 0  9994
2 49084  87.9137   8.4684 0002038  98.5156 261.6207 13.17650342231876
ONEWEB-0296             
1 49085U 21075L   26155.04488376 -.00000514  00000+0 -14634-2 0  9991
2 49085  87.8952 353.2806 0002139  87.7525 272.3848 13.12442268232850
ONEWEB-0297             
1 49086U 21075M   26155.07538888  .00000459  00000+0  12417-2 0  9992
2 49086  87.8939 353.2862 0001900  91.7312 268.4034 13.12443239233462
ONEWEB-0298             
1 49087U 21075N   26155.05516284  .00000254  00000+0  61996-3 0  9997
2 49087  87.9142   8.4796 0001956  90.6254 269.5102 13.17650371231894
ONEWEB-0299             
1 49088U 21075P   26155.05670039  .00000027  00000+0  36592-4 0  9990
2 49088  87.9154   8.4585 0001971  87.5483 272.5874 13.17650797231870
ONEWEB-0300             
1 49089U 21075Q   26155.06776474  .00000283  00000+0  75202-3 0  9996
2 49089  87.8954 353.2656 0002036  83.1466 276.9894 13.12444430233483
ONEWEB-0301             
1 49090U 21075R   26155.05166506 -.00000179  00000+0 -53186-3 0  9999
2 49090  87.8949 353.2676 0001846  78.5900 281.5436 13.12444802232846
ONEWEB-0302             
1 49091U 21075S   26155.11434439 -.00000384  00000+0 -11031-2 0  9990
2 49091  87.8952 353.2658 0001619 100.1426 259.9885 13.12444021232833
ONEWEB-0304             
1 49092U 21075T   26155.10731491  .00000064  00000+0  13124-3 0  9997
2 49092  87.9140   8.4722 0001969  87.2221 272.9136 13.17647834231858
ONEWEB-0305             
1 49093U 21075U   26155.10056658  .00000029  00000+0  41879-4 0  9993
2 49093  87.9148   8.4571 0002200  90.1746 269.9637 13.17647963231881
ONEWEB-0308             
1 49094U 21075V   26155.10756853 -.00000329  00000+0 -95039-3 0  9999
2 49094  87.8951 353.2600 0001770  87.7027 272.4304 13.12441817232844
